OBJECT_NAME,OBJECT_ID,EPOCH,MEAN_MOTION,ECCENTRICITY,INCLINATION,RA_OF_ASC_NODE,ARG_OF_PERICENTER,MEAN_ANOMALY,EPHEMERIS_TYPE,CLASSIFICATION_TYPE,NORAD_CAT_ID,ELEMENT_SET_NO,REV_AT_EPOCH,BSTAR,MEAN_MOTION_DOT,MEAN_MOTION_DDOT
BRO-5,2022-002CF,2026-06-05T06:50:08.659680,15.46684433,.00047261,97.2995,229.8542,23.9828,336.1641,0,U,51061,999,24441,.53508416E-3,.26695E-3,0
LUDI TANCE 1-01A (L-SAR 01A),2022-007A,2026-06-05T06:46:02.063712,14.88418566,.00016146,97.8105,163.8711,90.0154,270.1248,0,U,51284,999,23670,.78872385E-4,.677E-5,0
LUDI TANCE 1-01B (L-SAR 01B),2022-018A,2026-06-05T07:34:24.950784,14.88420753,.0001561,97.8103,163.9000,93.6403,266.4992,0,U,51822,999,23194,.81061768E-4,.697E-5,0
2022-019D,2022-019D,2026-06-05T06:28:31.058688,15.69252670,.00061215,97.3661,248.1207,173.0387,187.0961,0,U,51827,999,23783,.54857403E-3,.64145E-3,0
2022-019J,2022-019J,2026-06-05T05:28:58.047168,15.20390994,.00068691,97.3430,219.3480,272.8867,87.1582,0,U,51832,999,23598,.14930625E-3,.3186E-4,0
JILIN-1 GAOFEN 03D15,2022-019R,2026-06-05T07:23:27.636864,16.26312673,.00120538,97.3586,254.2392,261.5555,98.4371,0,U,51839,999,23824,.91873954E-3,.2922741E-1,.2446466E-5
JILIN-1 GAOFEN 03D12,2022-019T,2026-06-04T13:42:03.354624,16.34228631,.00136366,97.3493,253.4173,262.3725,97.6023,0,U,51841,999,23813,.80359336E-3,.5427683E-1,.2485589E-5
2022-023F,2022-023F,2026-06-05T06:52:22.190880,15.18165820,.01288994,63.4460,313.9376,343.1606,16.5245,0,U,51951,999,23590,.59464236E-3,.14981E-3,0
CZ-4C R/B,2022-027B,2026-06-05T01:53:15.311616,13.65478933,.02315168,63.3935,91.1586,22.6550,338.4508,0,U,52085,999,21038,.89896979E-4,-.7E-7,0
MERIDIAN 10,2022-030A,2026-06-05T00:10:17.120640,2.00614992,.67803427,62.6780,142.0991,272.8640,17.6775,0,U,52145,999,3078,0,.217E-5,0
OMNI-L1,2022-033A,2026-06-05T02:22:45.552576,14.82702625,.00044056,97.8391,235.5116,339.2775,20.8259,0,U,52157,999,22566,.29717532E-3,.2346E-4,0
ENMAP,2022-033C,2026-06-05T07:03:00.741312,14.74978044,.00013967,97.9791,238.7117,79.9190,280.2177,0,U,52159,999,22490,.88272479E-4,.543E-5,0
ARCSAT-1,2022-033E,2026-06-04T05:49:18.938784,15.53290234,.00035768,97.2749,247.3261,231.4725,128.6209,0,U,52161,999,23369,.2369493E-3,.14842E-3,0
GLOBAL-18,2022-034B,2026-06-04T17:07:47.148960,15.45721175,.000364,52.9833,316.2293,212.0941,147.9843,0,U,52196,999,23503,.50474E-3,.24436E-3,0
GAOFEN-3 03,2022-035A,2026-06-05T07:07:10.148736,14.42213405,.00010479,98.4061,165.0497,94.0741,266.0569,0,U,52200,999,21913,.6516572E-5,-.22E-6,0
DAQI-1,2022-039A,2026-06-05T06:28:57.201600,14.57670945,.00026162,98.1488,95.3694,311.9542,48.1434,0,U,52257,999,22020,.1267909E-3,.533E-5,0
BRO-6,2022-047AE,2026-06-05T04:41:33.595872,15.49709482,.00058046,97.3399,247.0281,116.5234,243.6613,0,U,52422,999,22929,.70542431E-3,.39198E-3,0
JILIN-1 GAOFEN 3D27,2022-048B,2026-06-05T06:23:59.640000,15.72618528,.00027282,97.5700,269.1482,103.0624,257.0944,0,U,52444,999,22760,.71985907E-3,.97191E-3,0
JILIN-1 GAOFEN 3D28,2022-048C,2026-06-05T02:19:23.808576,15.75189059,.00020894,97.5641,269.0688,143.4600,216.6808,0,U,52445,999,22762,.90272822E-3,.136703E-2,0
VIGORIDE-3,2022-057AE,2026-06-05T07:00:25.596288,15.27149033,.00088907,97.6598,295.9533,157.7064,202.4563,0,U,52760,999,22334,.21648176E-3,.569E-4,0
ION SCV-006,2022-057AF,2026-06-05T07:31:52.164480,15.44985284,.00179926,97.6095,304.3698,153.9648,206.2509,0,U,52761,999,22428,.26109684E-3,.12286E-3,0
SHERPA-AC1,2022-057AH,2026-06-03T07:44:29.503680,15.36058286,.00086669,97.6674,302.9744,135.8969,224.2967,0,U,52763,999,22357,.2357116E-3,.8201E-4,0
OMNI-L2,2022-057AR,2026-06-05T02:22:43.071168,14.81337483,.00068686,97.4719,219.2697,18.1714,341.9744,0,U,52771,999,21860,.21173844E-3,.1606E-4,0
STEP CUBE LAB-II,2022-065D,2026-06-05T05:42:32.723136,14.63284098,.00098671,98.2218,300.1771,65.5511,294.6719,0,U,52897,999,20975,.20487446E-3,.1009E-4,0
RANDEV,2022-065E,2026-06-05T07:27:04.877568,14.63671113,.00092075,98.2202,300.5961,65.9851,294.2314,0,U,52898,999,20951,.21410891E-3,.1066E-4,0
SNUGLITE-II,2022-065F,2026-06-02T19:38:11.355072,14.64318814,.00086986,98.2186,298.6759,72.9663,287.2492,0,U,52899,999,20889,.2267761E-3,.1149E-4,0
MIMAN,2022-065G,2026-06-05T06:36:25.758432,14.61830557,.00087853,98.2247,298.8188,67.9373,292.2760,0,U,52900,999,20870,.13512211E-3,.628E-5,0
STARLINK-4362,2022-077A,2026-06-05T05:40:48.018432,15.05680910,.00018807,97.4018,335.7100,65.8765,294.2659,0,U,53043,999,21408,-.41315383E-3,-.6019E-4,0
LARES-2,2022-080A,2026-06-03T13:15:00.088704,6.38965171,.00053798,70.1655,310.0052,337.8766,22.1504,0,U,53105,999,9079,0,-.12E-6,0
GREENCUBE (IO-117),2022-080E,2026-06-01T11:09:37.753056,6.42583280,.00088692,70.1435,303.7143,293.3663,66.6064,0,U,53109,999,9105,0,-.3E-7,0
