0 BRO-5
1 51061U 22002CF  26156.28482245  .00026695  00000-0  53508-3 0  9996
2 51061  97.2995 229.8542 0004726  23.9828 336.1641 15.46684433244412
0 ION SCV-006
1 52761U 22057AF  26156.31379820  .00012286  00000-0  26110-3 0  9992
2 52761  97.6095 304.3698 0017993 153.9648 206.2509 15.44985284224289
0 SHERPA-AC1
1 52763U 22057AH  26154.32256370  .00008201  00000-0  23571-3 0  9997
2 52763  97.6674 302.9744 0008667 135.8969 224.2967 15.36058286223576
0 OMNI-L2
1 52771U 22057AR  26156.09910962  .00001606  00000-0  21174-3 0  9995
2 52771  97.4719 219.2697 0006869  18.1714 341.9744 14.81337483218609
0 BRO-6
1 52422U 22047AE  26156.19552773  .00039198  00000-0  70542-3 0  9990
2 52422  97.3399 247.0281 0005805 116.5234 243.6613 15.49709482229299
0 STEP CUBE LAB-II
1 52897U 22065D   26156.23787874  .00001009  00000-0  20487-3 0  9996
2 52897  98.2218 300.1771 0009867  65.5511 294.6719 14.63284098209751
0 RANDEV
1 52898U 22065E   26156.31047312  .00001066  00000-0  21411-3 0  9993
2 52898  98.2202 300.5961 0009207  65.9851 294.2314 14.63671113209518
0 SNUGLITE-II
1 52899U 22065F   26153.81818698  .00001149  00000-0  22678-3 0  9997
2 52899  98.2186 298.6759 0008699  72.9663 287.2492 14.64318814208891
0 MIMAN
1 52900U 22065G   26156.27529813  .00000628  00000-0  13512-3 0  9999
2 52900  98.2247 298.8188 0008785  67.9373 292.2760 14.61830557208702
0 AVUM R/B
1 53109U 22080E   26152.46502029 -.00000003  00000-0  00000-0 0  9998
2 53109  70.1435 303.7143 0008869 293.3663  66.6064  6.42583280 91055
0 LARES-2
1 53105U 22080A   26154.55208436 -.00000012  00000-0  00000-0 0  9991
2 53105  70.1655 310.0052 0005380 337.8766  22.1504  6.38965171 90792
0 VIGORIDE 3
1 52760U 22057AE  26156.29196292  .00005690  00000-0  21648-3 0  9990
2 52760  97.6598 295.9533 0008891 157.7064 202.4563 15.27149033223349
0 OMNI-L1
1 52157U 22033A   26156.09913834  .00002346  00000-0  29718-3 0  9992
2 52157  97.8391 235.5116 0004406 339.2775  20.8259 14.82702625225666
0 STARLINK-4362
1 53043U 22077A   26156.23666688 -.00006019  00000-0 -41315-3 0  9993
2 53043  97.4018 335.7100 0001881  65.8765 294.2659 15.05680910214087
0 OBJECT D
1 51827U 22019D   26156.26980392  .00064145  00000-0  54857-3 0  9998
2 51827  97.3661 248.1207 0006122 173.0387 187.0961 15.69252670237839
0 OBJECT T
1 51841U 22019T   26155.57087216  .05427683  24856-5  80359-3 0  9991
2 51841  97.3493 253.4173 0013637 262.3725  97.6023 16.34228631238138
0 OBJECT R
1 51839U 22019R   26156.30795876  .02922741  24465-5  91874-3 0  9990
2 51839  97.3586 254.2392 0012054 261.5555  98.4371 16.26312673238242
0 CZ-4C R/B
1 52085U 22027B   26156.07864944 -.00000007  00000-0  89897-4 0  9998
2 52085  63.3935  91.1586 0231517  22.6550 338.4508 13.65478933210384
0 LT-1 01A
1 51284U 22007A   26156.28196833  .00000677  00000-0  78872-4 0  9997
2 51284  97.8105 163.8711 0001615  90.0154 270.1248 14.88418566236704
0 ARCSAT-1
1 52161U 22033E   26155.24258031  .00014842  00000-0  23695-3 0  9996
2 52161  97.2749 247.3261 0003577 231.4725 128.6209 15.53290234233691
0 OBJECT J
1 51832U 22019J   26156.22844962  .00003186  00000-0  14931-3 0  9999
2 51832  97.3430 219.3480 0006869 272.8867  87.1582 15.20390994235983
0 GLOBAL-18
1 52196U 22034B   26155.71374015  .00024436  00000-0  50474-3 0  9993
2 52196  52.9833 316.2293 0003640 212.0941 147.9843 15.45721175235030
0 JILIN-01 GAOFEN 3D 28
1 52445U 22048C   26156.09680334  .00136703  00000-0  90273-3 0  9993
2 52445  97.5641 269.0688 0002089 143.4600 216.6808 15.75189059227620
0 JILIN-01 GAOFEN 3D 27
1 52444U 22048B   26156.26666250  .00097191  00000-0  71986-3 0  9999
2 52444  97.5700 269.1482 0002728 103.0624 257.0944 15.72618528227609
0 ENMAP
1 52159U 22033C   26156.29375858  .00000543  00000-0  88272-4 0  9992
2 52159  97.9791 238.7117 0001397  79.9190 280.2177 14.74978044224902
0 OBJECT F
1 51951U 22023F   26156.28636795  .00014981  00000-0  59464-3 0  9990
2 51951  63.4460 313.9376 0128899 343.1606  16.5245 15.18165820235907
0 LT-1 01B
1 51822U 22018A   26156.31556656  .00000697  00000-0  81062-4 0  9991
2 51822  97.8103 163.9000 0001561  93.6403 266.4992 14.88420753231944
0 DAQI 1
1 52257U 22039A   26156.27010650  .00000533  00000-0  12679-3 0  9997
2 52257  98.1488  95.3694 0002616 311.9542  48.1434 14.57670945220205
0 GAOFEN 3 03
1 52200U 22035A   26156.29664524 -.00000022  00000-0  65166-5 0  9993
2 52200  98.4061 165.0497 0001048  94.0741 266.0569 14.42213405219135
0 MERIDIAN 10
1 52145U 22030A   26156.00714260  .00000217  00000-0  00000-0 0  9994
2 52145  62.6780 142.0991 6780343 272.8640  17.6775  2.00614992 30788
